[{"OBJECT_NAME":"STARLINK-31911","OBJECT_ID":"2024-150E","EPOCH":"2026-03-09T21:54:11.574144","MEAN_MOTION":15.30197119,"ECCENTRICITY":0.00014401,"INCLINATION":53.161,"RA_OF_ASC_NODE":306.1203,"ARG_OF_PERICENTER":114.2645,"MEAN_ANOMALY":245.8506,"EPHEMERIS_TYPE":0,"CLASSIFICATION_TYPE":"U","NORAD_CAT_ID":60587,"ELEMENT_SET_NO":999,"REV_AT_EPOCH":8799,"BSTAR":-4.6184632e-5,"MEAN_MOTION_DOT":-1.727e-5,"MEAN_MOTION_DDOT":0},{"OBJECT_NAME":"TEVEL2-6","OBJECT_ID":"2025-052F","EPOCH":"2026-03-09T15:35:24.554400","MEAN_MOTION":15.30760889,"ECCENTRICITY":0.0004769,"INCLINATION":97.4016,"RA_OF_ASC_NODE":325.0381,"ARG_OF_PERICENTER":95.6604,"MEAN_ANOMALY":264.5181,"EPHEMERIS_TYPE":0,"CLASSIFICATION_TYPE":"U","NORAD_CAT_ID":63215,"ELEMENT_SET_NO":999,"REV_AT_EPOCH":5486,"BSTAR":0.00070909,"MEAN_MOTION_DOT":0.00021046,"MEAN_MOTION_DDOT":0}]
